OBJECT_NAME,OBJECT_ID,EPOCH,MEAN_MOTION,ECCENTRICITY,INCLINATION,RA_OF_ASC_NODE,ARG_OF_PERICENTER,MEAN_ANOMALY,EPHEMERIS_TYPE,CLASSIFICATION_TYPE,NORAD_CAT_ID,ELEMENT_SET_NO,REV_AT_EPOCH,BSTAR,MEAN_MOTION_DOT,MEAN_MOTION_DDOT
SCD 1,1993-009B,2026-06-24T06:22:11.174304,14.46120879,.00417685,24.9678,163.8707,212.6013,170.2739,0,U,22490,999,76214,.43844217E-4,.347E-5,0
TECHSAT 1B (GO-32),1998-043D,2026-06-23T22:45:24.588000,14.24429485,.00013897,99.0070,167.8775,150.1095,210.0162,0,U,25397,999,45229,.36578906E-4,.38E-6,0
SCD 2,1998-060A,2026-06-24T07:05:52.020672,14.45528165,.00166909,24.9965,28.3199,197.6520,323.1922,0,U,25504,999,46135,.46642513E-4,.35E-5,0
DLR-TUBSAT,1999-029B,2026-06-24T06:01:55.868448,14.52428256,.00136317,98.6696,170.9879,333.1881,26.8608,0,U,25757,999,43427,.28750387E-4,.69E-6,0
TERRA,1999-068A,2026-06-24T04:54:11.881152,14.61107812,.00021345,97.9452,224.4723,168.7843,232.0602,0,U,25994,999,41063,.69674822E-4,.298E-5,0
MAROC-TUBSAT,2001-056D,2026-06-24T06:04:57.094176,13.70262661,.00205086,99.8086,352.2461,123.7364,49.6468,0,U,27004,999,22715,.28949028E-4,-.21E-6,0
AQUA,2002-022A,2026-06-24T05:59:09.983904,14.62167261,.00008507,98.4280,144.6735,59.7757,53.2863,0,U,27424,999,28430,.13620253E-3,.636E-5,0
SHIYAN-1 (SY-1),2004-012A,2026-06-24T03:56:13.817184,15.33912647,.00049542,97.8691,253.6862,8.9226,351.2102,0,U,28220,999,21216,.37995229E-3,.12388E-3,0
AURA,2004-026A,2026-06-24T05:51:25.577856,14.61338191,.00011599,98.3420,131.7558,79.6065,280.5266,0,U,28376,999,16724,.13667914E-3,.627E-5,0
IRS-P5 (CARTOSAT-1),2005-017A,2026-06-24T01:22:52.312224,14.91064264,.00024558,97.5306,197.8104,71.7072,288.4414,0,U,28649,999,14484,.11009338E-3,.1038E-4,0
SINAH 1,2005-043D,2026-06-24T07:09:16.881120,14.64161659,.00132141,98.2868,309.6622,252.3334,107.6426,0,U,28893,999,10156,.58725462E-4,.26E-5,0
RESURS-DK 1,2006-021A,2026-06-23T09:08:58.354080,15.13241898,.00065671,69.9346,323.5181,293.0042,67.0431,0,U,29228,999,10351,.18882155E-3,.3257E-4,0
ARIRANG-2 (KOMPSAT-2),2006-031A,2026-06-24T06:46:34.341024,14.64662833,.00157271,97.8314,359.3856,54.1754,118.8420,0,U,29268,999,6251,.23087814E-4,.78E-6,0
LAPAN-TUBSAT,2007-001A,2026-06-24T06:10:47.598240,14.85954378,.00124817,98.1349,174.6411,156.4611,203.7178,0,U,29709,999,5220,-.19245697E-4,-.226E-5,0
HAIYANG-1B,2007-010A,2026-06-24T04:57:42.756768,14.31028418,.00134834,98.3498,156.7798,175.2090,184.9225,0,U,31113,999,164,.4543811E-4,.78E-6,0
COSMO-SKYMED 1,2007-023A,2026-06-24T06:52:34.984992,14.97133503,.00017181,97.8857,7.2018,92.5084,267.6334,0,U,31598,999,3085,.230119E-3,.2597E-4,0
TERRASAR-X,2007-026A,2026-06-23T10:46:51.723264,15.19148805,.00015926,97.4450,182.0655,87.2494,272.8923,0,U,31698,999,5417,.16170785E-4,.273E-5,0
WORLDVIEW-1 (WV-1),2007-041A,2026-06-24T06:00:47.264256,15.24333179,.00015825,97.3877,294.8931,355.7731,4.3493,0,U,32060,999,4395,.21011279E-3,.5069E-4,0
YAOGAN-3,2007-055A,2026-06-24T07:25:12.431424,14.90806345,.00019335,97.8156,205.1167,82.3575,277.7862,0,U,32289,999,693,.24636814E-3,.2368E-4,0
COSMO-SKYMED 2,2007-059A,2026-06-24T12:28:20.644896,14.82150422,.0001328,97.8888,359.0114,87.3340,272.8025,0,U,32376,999,309,.47879E-4,.329E-5,0
RADARSAT-2,2007-061A,2026-06-24T07:33:17.251200,14.29983021,.00013154,98.5783,182.1456,84.5368,275.5964,0,U,32382,999,96697,.19564735E-4,.7E-7,0
CARTOSAT-2A,2008-021A,2026-06-24T06:49:29.913600,14.79246122,.00133216,97.7631,223.7510,88.4858,271.7880,0,U,32783,999,97985,.39014454E-4,.24E-5,0
HUANJING 1A (HJ-1A),2008-041A,2026-06-24T07:31:36.740352,14.83999698,.00203954,97.6687,160.8763,112.7083,247.6290,0,U,33320,999,95946,.13490879E-3,.1075E-4,0
HUANJING 1B (HJ-1B),2008-041B,2026-06-24T06:51:44.862624,14.83328114,.00366999,97.6525,164.0004,157.6378,202.6446,0,U,33321,999,95946,.10499051E-3,.818E-5,0
GEOEYE 1,2008-042A,2026-06-24T06:09:16.517088,14.64731070,.00051182,98.1234,249.0981,52.1920,307.9746,0,U,33331,999,95118,.68933262E-4,.32E-5,0
THEOS,2008-049A,2026-06-24T07:06:37.118880,14.20132992,.00011827,98.5568,232.3494,80.9186,279.2125,0,U,33396,999,91897,-.72728141E-4,-.197E-5,0
COSMO-SKYMED 3,2008-054A,2026-06-24T05:57:02.322720,15.06983772,.00141146,97.8281,33.9356,239.8461,120.1368,0,U,33412,999,95800,.11778244E-3,.17E-4,0
YAOGAN-4,2008-061A,2026-06-23T18:40:57.124416,14.83210614,.00154979,97.9306,108.2400,53.0026,307.2604,0,U,33446,999,94664,.96594528E-4,.736E-5,0
GOSAT (IBUKI),2009-002A,2026-06-24T03:52:00.625440,14.67538080,.00012982,98.0898,286.1549,83.8411,276.2941,0,U,33492,999,93248,-.12266016E-4,-.118E-5,0
DEIMOS-1,2009-041A,2026-06-24T07:23:47.914080,14.75242354,.00020953,97.7414,332.2273,122.3661,237.7752,0,U,35681,999,90793,.33211658E-4,.177E-5,0
