SCD 1                   
1 22490U 93009B   26175.26540711  .00000347  00000+0  43844-4 0  9995
2 22490  24.9678 163.8707 0041768 212.6013 170.2739 14.46120879762149
TECHSAT 1B (GO-32)      
1 25397U 98043D   26174.94820125  .00000038  00000+0  36579-4 0  9995
2 25397  99.0070 167.8775 0001389 150.1095 210.0162 14.24429485452293
SCD 2                   
1 25504U 98060A   26175.29574098  .00000350  00000+0  46643-4 0  9998
2 25504  24.9965  28.3199 0016690 197.6520 323.1922 14.45528165461359
DLR-TUBSAT              
1 25757U 99029B   26175.25134107  .00000069  00000+0  28750-4 0  9999
2 25757  98.6696 170.9879 0013631 333.1881  26.8608 14.52428256434273
TERRA                   
1 25994U 99068A   26175.20430418  .00000298  00000+0  69675-4 0  9999
2 25994  97.9452 224.4723 0002134 168.7843 232.0602 14.61107812410638
MAROC-TUBSAT            
1 27004U 01056D   26175.25343859 -.00000021  00000+0  28949-4 0  9994
2 27004  99.8086 352.2461 0020508 123.7364  49.6468 13.70262661227157
AQUA                    
1 27424U 02022A   26175.24942111  .00000636  00000+0  13620-3 0  9999
2 27424  98.4280 144.6735 0000850  59.7757  53.2863 14.62167261284305
SHIYAN-1 (SY-1)         
1 28220U 04012A   26175.16404881  .00012388  00000+0  37995-3 0  9991
2 28220  97.8691 253.6862 0004954   8.9226 351.2102 15.33912647212164
AURA                    
1 28376U 04026A   26175.24404604  .00000627  00000+0  13668-3 0  9994
2 28376  98.3420 131.7558 0001159  79.6065 280.5266 14.61338191167249
IRS-P5 (CARTOSAT-1)     
1 28649U 05017A   26175.05754991  .00001038  00000+0  11009-3 0  9998
2 28649  97.5306 197.8104 0002455  71.7072 288.4414 14.91064264144840
SINAH 1                 
1 28893U 05043D   26175.29811205  .00000260  00000+0  58725-4 0  9999
2 28893  98.2868 309.6622 0013214 252.3334 107.6426 14.64161659101566
RESURS-DK 1             
1 29228U 06021A   26174.38123095  .00003257  00000+0  18882-3 0  9999
2 29228  69.9346 323.5181 0006567 293.0042  67.0431 15.13241898103512
ARIRANG-2 (KOMPSAT-2)   
1 29268U 06031A   26175.28234191  .00000078  00000+0  23088-4 0  9997
2 29268  97.8314 359.3856 0015727  54.1754 118.8420 14.64662833 62519
LAPAN-TUBSAT            
1 29709U 07001A   26175.25749535 -.00000226  00000+0 -19246-4 0  9993
2 29709  98.1349 174.6411 0012481 156.4611 203.7178 14.85954378 52208
HAIYANG-1B              
1 31113U 07010A   26175.20674487  .00000078  00000+0  45438-4 0  9998
2 31113  98.3498 156.7798 0013483 175.2090 184.9225 14.31028418  1642
COSMO-SKYMED 1          
1 31598U 07023A   26175.28651603  .00002597  00000+0  23012-3 0  9993
2 31598  97.8857   7.2018 0001718  92.5084 267.6334 14.97133503 30858
TERRASAR-X              
1 31698U 07026A   26174.44920976  .00000273  00000+0  16171-4 0  9994
2 31698  97.4450 182.0655 0001592  87.2494 272.8923 15.19148805 54178
WORLDVIEW-1 (WV-1)      
1 32060U 07041A   26175.25054704  .00005069  00000+0  21011-3 0  9998
2 32060  97.3877 294.8931 0001582 355.7731   4.3493 15.24333179 43959
YAOGAN-3                
1 32289U 07055A   26175.30917166  .00002368  00000+0  24637-3 0  9998
2 32289  97.8156 205.1167 0001933  82.3575 277.7862 14.90806345  6937
COSMO-SKYMED 2          
1 32376U 07059A   26175.51968339  .00000329  00000+0  47879-4 0  9999
2 32376  97.8888 359.0114 0001328  87.3340 272.8025 14.82150422  3090
RADARSAT-2              
1 32382U 07061A   26175.31478300  .00000007  00000+0  19565-4 0  9995
2 32382  98.5783 182.1456 0001315  84.5368 275.5964 14.29983021966975
CARTOSAT-2A             
1 32783U 08021A   26175.28437400  .00000240  00000+0  39014-4 0  9999
2 32783  97.7631 223.7510 0013321  88.4858 271.7880 14.79246122979858
HUANJING 1A (HJ-1A)     
1 33320U 08041A   26175.31361968  .00001075  00000+0  13491-3 0  9995
2 33320  97.6687 160.8763 0020395 112.7083 247.6290 14.83999698959467
HUANJING 1B (HJ-1B)     
1 33321U 08041B   26175.28593591  .00000818  00000+0  10499-3 0  9990
2 33321  97.6525 164.0004 0036699 157.6378 202.6446 14.83328114959465
GEOEYE 1                
1 33331U 08042A   26175.25644117  .00000320  00000+0  68933-4 0  9995
2 33331  98.1234 249.0981 0005118  52.1920 307.9746 14.64731070951182
THEOS                   
1 33396U 08049A   26175.29626295 -.00000197  00000+0 -72728-4 0  9995
2 33396  98.5568 232.3494 0001182  80.9186 279.2125 14.20132992918973
COSMO-SKYMED 3          
1 33412U 08054A   26175.24794355  .00001700  00000+0  11778-3 0  9994
2 33412  97.8281  33.9356 0014114 239.8461 120.1368 15.06983772958004
YAOGAN-4                
1 33446U 08061A   26174.77843894  .00000736  00000+0  96595-4 0  9998
2 33446  97.9306 108.2400 0015497  53.0026 307.2604 14.83210614946644
GOSAT (IBUKI)           
1 33492U 09002A   26175.16111835 -.00000118  00000+0 -12266-4 0  9991
2 33492  98.0898 286.1549 0001298  83.8411 276.2941 14.67538080932484
DEIMOS-1                
1 35681U 09041A   26175.30819345  .00000177  00000+0  33212-4 0  9990
2 35681  97.7414 332.2273 0002095 122.3661 237.7752 14.75242354907934
